# From MPC114607
P/2019 GG21 (PANSTARRS),e,6.0843,340.5700,208.6032,7.474003,0.0482363,0.47248282,44.8635,11/26.0/2021,2000,g 12.0,4.0
# From MPC115885
C/2019 H1 (NEOWISE),e,104.5424,269.2181,19.3453,240.8585,0.0002637,0.99233439,0.0000,04/27.9024/2019,2000,g 15.5,4.0
# From MPC118842
C/2019 J1 (Lemmon),e,24.5493,98.1064,167.7940,69.21772,0.0017115,0.96414700,1.6467,11/26.0/2021,2000,g 12.0,4.0
# From MPEC 2021-R75
C/2019 J2 (Palomar),e,105.2048,25.5255,98.7354,160.3817,0.0004853,0.98923887,0.0000,07/19.8157/2019,2000,g 13.0,4.0
# From MPC117071
C/2019 J3 (ATLAS),h,08/02.1110/2019,131.3994,270.5480,16.6152,1.000577,2.374487,2000,13.5,4.0
# From MPC117071
C/2019 JU6 (ATLAS),e,148.3208,21.7637,94.9497,356.4190,0.0001465,0.99425782,0.0000,06/01.0529/2019,2000,g 14.5,4.0
# From MPEC 2021-P47
C/2019 K1 (ATLAS),h,02/12.9998/2020,87.1159,73.3716,265.7142,1.000049,2.012599,2000,10.0,4.0
# From MPC119997
C/2019 K4 (Ye),e,105.2977,180.1479,139.7891,1335,0.0000202,0.99830588,0.0000,06/16.0943/2019,2000,g 12.5,4.0
# From MPEC 2021-P47
C/2019 K5 (Young),e,15.3178,177.1368,175.0329,162.2527,0.0004769,0.98744716,0.0000,06/23.0101/2019,2000,g 13.0,4.0
# From MPEC 2021-P47
C/2019 K6 (PANSTARRS),e,132.3832,42.9615,187.6388,1934,0.0000116,0.99796845,0.0000,05/20.2792/2020,2000,g 11.5,4.0
# From MPEC 2021-W31
C/2019 K7 (Smith),h,06/17.2150/2020,103.5423,307.9324,27.3464,1.000193,4.476366,2000,6.0,4.0
# From MPEC 2021-R75
C/2019 K8 (ATLAS),e,93.2047,291.0469,85.3958,2487,0.0000079,0.99871534,0.0000,07/21.6466/2019,2000,g 11.5,4.0
# From MPC118095
C/2019 L1 (PANSTARRS),e,9.9891,254.4223,49.9988,9.841454,0.0319238,0.70597051,26.7404,11/26.0/2021,2000,g 13.5,4.0
# From MPC115886
C/2019 L2 (NEOWISE),e,152.1978,12.5609,18.7761,24.88889,0.0079377,0.93479956,7.6942,11/26.0/2021,2000,g 16.0,4.0
# From MPEC 2021-W31
P/2019 LD2 (ATLAS),e,11.6124,179.5836,122.3944,5.252159,0.0818837,0.12896308,49.6786,11/26.0/2021,2000,g  8.5,4.0
# From MPEC 2021-W31
C/2019 L3 (ATLAS),h,01/09.6218/2022,48.3625,290.7898,171.6113,1.001519,3.554505,2000,4.5,4.0
# From MPC118095
C/2019 LB7 (Kleyna),e,164.2913,3.8965,336.4811,34.56477,0.0048501,0.92811742,4.7309,11/26.0/2021,2000,g 17.0,4.0
# From MPC118843
P/2019 M2 (ATLAS),e,12.2803,307.6028,332.5804,3.027518,0.1871001,0.64801153,166.0448,11/26.0/2021,2000,g 21.2,4.0
# From MPC118095
C/2019 M3 (ATLAS),h,01/02.0426/2019,99.4796,154.9069,87.8912,1.000345,2.419075,2000,12.2,4.0
# From MPEC 2021-UA9
C/2019 N1 (ATLAS),e,82.4280,13.5759,193.4431,5102,0.0000027,0.99966588,0.0000,12/01.7709/2020,2000,g  7.5,4.0
# From MPEC 2021-N06
C/2019 NJ3 (Lemmon),h,10/22.5458/2020,99.4382,142.4550,246.8756,1.001498,4.362140,2000,9.0,4.0
# From MPEC 2021-W31
A/2019 O2,e,93.2925,48.2911,129.6658,57.40076,0.0022664,0.83131526,358.8717,11/26.0/2021,2000,g  9.5,2.0
# From MPEC 2021-W31
C/2019 O3 (Palomar),h,03/08.6718/2021,89.8176,300.3872,60.0853,1.003267,8.819744,2000,3.5,4.0
# From MPEC 2021-P47
A/2019 O4,e,115.0935,354.9094,61.8634,33.01560,0.0051955,0.88957175,3.4016,11/26.0/2021,2000,g 15.5,2.0
# From MPEC 2021-N06
C/2019 Q1 (Lemmon),h,07/20.2257/2020,155.7250,42.4728,56.1317,1.000328,4.998972,2000,8.5,4.0
# From MPC117072
A/2019 Q2,e,159.0269,188.0179,176.3110,57.21130,0.0022776,0.97799821,0.0000,07/22.1115/2019,2000,g 18.0,2.0
# From MPC117072
C/2019 Q3 (PANSTARRS),h,08/21.5479/2018,65.5256,151.3229,152.7345,1.003455,7.257992,2000,8.5,4.0
# From MPC117072
P/2019 S2 (PANSTARRS),e,10.4711,93.1370,217.0149,4.738889,0.0955409,0.20655971,96.2733,11/26.0/2021,2000,g 13.5,4.0
# From MPC118096
P/2019 S3 (PANSTARRS),e,8.6948,150.1598,212.9988,3.415077,0.1561720,0.47112772,128.4552,11/26.0/2021,2000,g 18.3,4.0
# From MPEC 2021-S45
C/2019 S4 (Lemmon),e,92.0365,63.1575,71.3670,230.9787,0.0002808,0.98509671,0.0000,04/07.9121/2020,2000,g 11.0,4.0
# From MPEC 2021-W31
A/2019 T1,e,120.8726,6.9479,91.0549,38.38551,0.0041443,0.88845069,1.3077,11/26.0/2021,2000,g 13.0,2.0
# From MPEC 2021-P47
C/2019 T2 (Lemmon),e,111.4889,155.6426,239.3990,2116,0.0000101,0.99874933,0.0000,04/22.3138/2021,2000,g  9.0,4.0
# From MPEC 2021-W31
C/2019 T3 (ATLAS),e,121.8616,139.5216,112.3218,3155,0.0000056,0.99811473,0.0000,03/03.1593/2021,2000,g  6.8,4.0
# From MPEC 2021-W31
C/2019 T4 (ATLAS),e,53.6250,199.9411,351.2095,1021,0.0000302,0.99584627,0.0000,06/09.1949/2022,2000,g  5.0,4.0
# From MPEC 2021-P47
P/2019 T5 (ATLAS),e,33.4439,247.6615,189.5676,7.996665,0.0435854,0.80913462,36.9520,11/26.0/2021,2000,g 15.0,4.0
# From MPEC 2021-P47
P/2019 T6 (PANSTARRS),e,18.6950,71.2762,328.9201,5.435052,0.0777855,0.62274088,58.2651,11/26.0/2021,2000,g 15.5,4.0
# From MPC118096
P/2019 U4 (PANSTARRS),e,11.6957,200.0058,180.9836,3.520474,0.1492115,0.47574171,119.2698,11/26.0/2021,2000,g 19.0,4.0
# From MPEC 2021-W31
C/2019 U5 (PANSTARRS),h,03/30.0672/2023,113.5194,2.6403,181.5412,1.000995,3.623223,2000,4.5,4.0
# From MPEC 2021-P47
C/2019 U6 (Lemmon),e,60.9979,235.7046,329.6477,385.3550,0.0001303,0.99762732,0.0000,06/18.7283/2020,2000,g 10.0,4.0
# From MPC119998
C/2019 V1 (Borisov),e,61.8680,83.1912,51.1794,1540,0.0000163,0.99798853,0.0000,07/16.4356/2020,2000,g 11.0,4.0
# From MPEC 2021-P47
P/2019 V2 (Groeller),e,11.8064,189.1804,335.9346,7.508546,0.0479038,0.33142413,19.3037,11/26.0/2021,2000,g 10.0,4.0
# From MPC119998
P/2019 W1 (PANSTARRS),e,23.4662,35.3856,18.6854,4.549793,0.1015586,0.26656033,94.7677,11/26.0/2021,2000,g 12.9,4.0
# From MPEC 2021-P47
P/2019 X1 (Pruyne),e,10.2465,43.6813,36.7952,6.173041,0.0642622,0.30302366,55.1831,11/26.0/2021,2000,g 10.4,4.0
# From MPC119999
C/2019 Y1 (ATLAS),e,73.2966,31.5292,57.9551,85.67846,0.0012428,0.99030006,0.0000,03/15.6133/2020,2000,g 13.7,4.0
# From MPEC 2020-L06
C/2019 Y4 (ATLAS),h,05/31.0486/2020,45.8050,120.9418,177.2738,1.001392,0.251600,2000,11.6,6.0
# From MPEC 2020-L06
C/2019 Y4-A (ATLAS),h,05/31.0486/2020,45.8050,120.9418,177.2738,1.001392,0.251600,2000,11.6,6.0
# From MPEC 2020-L06
C/2019 Y4-B (ATLAS),e,45.4396,120.6376,177.4069,1358,0.0000197,0.99981366,0.0000,05/31.0271/2020,2000,g 12.8,6.0
# From MPEC 2020-L06
C/2019 Y4-C (ATLAS),h,05/31.0061/2020,45.5872,120.6677,177.3072,1.002112,0.252654,2000,12.7,6.0
# From MPEC 2020-L06
C/2019 Y4-D (ATLAS),e,45.6291,121.0475,177.4454,68.09929,0.0017538,0.99629899,0.0000,05/31.1251/2020,2000,g 12.5,6.0
# From MPEC 2021-P47
C/2019 Y5 (PANSTARRS),e,82.8008,51.7750,303.5154,816.8241,0.0000422,0.99398251,0.0000,08/18.2412/2019,2000,g 11.0,4.0
# From MPEC 2020-L06
C/2020 A2 (Iwamoto),e,120.7237,286.3671,68.1811,1362,0.0000196,0.99928297,0.0000,01/08.4625/2020,2000,g 13.5,4.0
# From MPEC 2020-L06
C/2020 A3 (ATLAS),h,07/29.8543/2019,146.7720,120.3823,271.1686,1.025950,5.838526,2000,8.0,4.0
# From MPEC 2020-L06
C/2020 B3 (Rankin),e,20.7092,185.8403,325.0193,1141,0.0000256,0.99706898,0.0000,10/19.5382/2019,2000,g 13.0,4.0
# From MPEC 2021-R75
C/2020 F2 (ATLAS),h,07/16.1078/2022,163.5817,250.2624,48.3658,1.004402,8.817046,2000,4.5,4.0
# From MPEC 2021-O56
C/2020 F3 (NEOWISE),e,128.9694,61.0212,37.2924,339.7916,0.0001574,0.99913203,0.0000,07/03.6267/2020,2000,g  7.5,5.2
# From MPEC 2021-W31
C/2020 F5 (MASTER),h,03/24.7625/2021,51.8040,350.5760,311.1622,1.006700,4.326480,2000,6.5,3.2
# From MPEC 2020-L06
C/2020 F6 (PANSTARRS),e,174.5827,207.8958,344.6196,409.9716,0.0001187,0.99143686,0.0000,04/11.7429/2020,2000,g 14.5,2.8
# From MPEC 2021-W31
C/2020 F7 (Lemmon),e,93.9531,321.8864,227.9682,688.5011,0.0000546,0.99225547,0.0000,11/13.9941/2021,2000,g  7.0,4.0
# From MPEC 2020-KB7
C/2020 F8 (SWAN),e,110.7523,259.9765,68.1882,269.5306,0.0002227,0.99840510,0.0000,05/27.5845/2020,2000,g 10.0,4.0
# From MPEC 2020-L06
P/2020 G1 (Pimentel),e,18.4838,240.0972,207.6412,3.609590,0.1437200,0.85994507,88.9123,11/26.0/2021,2000,g 17.0,4.0
# From MPEC 2020-L06
C/2020 H2 (Pruyne),e,125.0169,277.6475,26.7065,191.9180,0.0003707,0.99565734,0.0000,04/27.6707/2020,2000,g 18.0,4.0
# From MPEC 2020-HM1
C/2020 H3 (Wierzchos),p,06/05.7162/2020,62.5292,30.4456,2.300288,270.6227,2000,13.5,4.0
# From MPEC 2020-L06
C/2020 H4 (Leonard),e,84.5120,307.7299,117.5837,48.05288,0.0029589,0.98072073,0.0000,08/29.5460/2020,2000,g 15.0,3.2
# From MPEC 2021-O56
C/2020 H5 (Robinson),e,70.2329,210.6305,326.3991,3469,0.0000048,0.99730578,0.0000,12/11.8863/2020,2000,g  5.0,4.0
# From MPEC 2021-R75
C/2020 H6 (ATLAS),h,10/01.0623/2021,79.9698,213.7076,20.3460,1.000639,4.702888,2000,8.0,3.2
# From MPEC 2020-KB7
C/2020 H7 (Lemmon),e,135.9235,323.5194,82.6780,1405,0.0000187,0.99685380,0.0000,06/02.9510/2020,2000,g 11.0,4.0
# From MPEC 2021-N06
C/2020 H8 (PANSTARRS),e,99.6529,68.4089,128.9428,592.7625,0.0000683,0.99211209,0.0000,06/04.4726/2020,2000,g 10.5,4.0
# From MPEC 2020-L06
A/2020 H9,e,137.8836,213.1423,312.9164,568.7228,0.0000727,0.99546474,0.0000,12/21.4722/2019,2000,g 18.0,2.0
# From MPEC 2021-W31
C/2020 J1 (SONEAR),h,04/18.6169/2021,142.2972,226.5833,341.7577,1.000516,3.355196,2000,8.5,3.2
# From MPEC 2021-W31
C/2020 K1 (PANSTARRS),e,89.6584,94.3605,213.9716,12481,0.0000007,0.99975371,0.0000,05/09.0901/2023,2000,g  5.5,4.0
# From MPEC 2021-N06
C/2020 K2 (PANSTARRS),h,08/05.7734/2020,91.0379,288.3544,67.3234,1.003176,8.878906,2000,10.8,4.0
# From MPEC 2020-KF9
C/2020 K3 (Leonard),p,06/01.0032/2020,129.0152,64.4924,1.583069,28.3546,2000,14.5,4.0
# From MPEC 2020-L06
C/2020 K4 (PANSTARRS),e,125.5699,264.1138,308.8026,23.89668,0.0084372,0.92660465,5.3347,11/26.0/2021,2000,g 16.5,4.0
# From MPEC 2021-R75
C/2020 K5 (PANSTARRS),h,06/05.5739/2021,67.1502,86.1654,249.5923,1.001504,1.535731,2000,11.0,4.0
# From MPEC 2021-W31
C/2020 K6 (Rankin),h,09/15.5310/2021,103.6444,291.5275,44.3034,1.003134,5.868377,2000,8.0,4.0
# From MPEC 2021-S45
C/2020 K7 (PANSTARRS),e,32.0415,286.0738,358.2303,102.0056,0.0009567,0.93737009,0.7262,11/26.0/2021,2000,g  8.0,4.0
# From MPEC 2021-P47
C/2020 K8 (Catalina-ATLAS),h,09/14.5407/2020,31.4237,181.5328,260.0191,1.000153,0.474009,2000,15.0,3.2
# From MPEC 2021-BE3
P/2020 K9 (Lemmon-PANSTARRS),e,23.2098,166.2398,196.9161,4.199469,0.1145282,0.32140617,32.8729,11/26.0/2021,2000,g 12.5,4.0
# From MPEC 2021-U31
